
GEESAT-2 09             
1 58913U 24023J   24353.11736939  .00007559  00000+0  73899-3 0  9997
2 58913  50.0045  22.7179 0007011 297.2783  62.7445 14.93131451 47592
GEESAT-2 10             
1 58914U 24023K   24353.10259903  .00007733  00000+0  75524-3 0  9999
2 58914  49.9955  23.0732 0011159 107.9262 252.2898 14.93120473 47585
GEESAT-2 11             
1 58915U 24023L   24353.13185486  .00008106  00000+0  79130-3 0  9999
2 58915  50.0002  22.6772 0001672  35.6112 324.4941 14.93110559 47597
2024-024A               
1 58917U 24024A   24353.18583349  .00073340  00000+0  16373-2 0  9998
2 58917  97.3678  67.2348 0006242 231.6228 128.4460 15.43261014 48688
2024-024B               
1 58918U 24024B   24353.12922962  .00018809  00000+0  85653-3 0  9998
2 58918  97.3732  63.7618 0014383  92.2045 268.0838 15.20638918 48433
2024-024C               
1 58919U 24024C   24353.16478539  .00023736  00000+0  84303-3 0  9995
2 58919  97.3729  65.3709 0001423  62.9954 297.1431 15.29027359 48547
2024-024D               
1 58920U 24024D   24353.16232284  .00060122  00000+0  14543-2 0  9990
2 58920  97.3710  67.6347 0005419 245.3182 114.7500 15.40911502 48693
NEXSAT-1                
1 58921U 24024E   24353.16285531  .00011567  00000+0  48283-3 0  9992
2 58921  97.3684  63.9701 0008792 251.2220 108.8064 15.23777644 48465
2024-024F               
1 58922U 24024F   24353.14148170  .00016227  00000+0  94866-3 0  9994
2 58922  97.3686  64.5757 0014921 115.1602 245.1178 15.11858230 48503
2024-024G               
1 58923U 24024G   24353.12489922  .00027853  00000+0  89573-3 0  9992
2 58923  97.3759  65.8498 0008509 247.6838 112.3502 15.32182068 48562
2024-024H               
1 58924U 24024H   24353.15520629  .00055918  00000+0  12968-2 0  9992
2 58924  97.3707  67.2957 0007097 239.3962 120.6586 15.42192289 85392
2024-024J               
1 58925U 24024J   24353.15442978  .00026179  00000+0  89427-3 0  9995
2 58925  97.3726  65.3864 0008721 250.9373 109.0924 15.30243748 85256
PACE                    
1 58928U 24025A   24352.82186638  .00001425  00000+0  27166-3 0  9999
2 58928  98.1087 281.8384 0002374  23.1493 336.9817 14.65516910 45924
COSMOS 2575             
1 58929U 24026A   24352.95717362  .00101867  00000+0  36060-3 0  9993
2 58929  96.7000 246.5352 0001223 103.8177 256.3234 15.88775744 49531
STARLINK-31317          
1 58931U 24027A   24352.83039786  .00001328  00000+0  56965-4 0  9999
2 58931  53.1589 225.1384 0001042  91.7501 268.3619 15.30193536 48759
STARLINK-31378          
1 58932U 24027B   24352.96420698  .00000110  00000+0  15861-4 0  9998
2 58932  53.1595 224.5484 0001225  80.8658 279.2481 15.30183759 48772
STARLINK-31350          
1 58933U 24027C   24353.08535637 -.00002774  00000+0 -81670-4 0  9994
2 58933  53.1584 223.8879 0001482  99.6760 260.4408 15.30155570 48791
STARLINK-31337          
1 58934U 24027D   24353.01684988  .00001124  00000+0  50059-4 0  9995
2 58934  53.1600 224.1697 0001258  90.0227 270.0918 15.30198647 48781
STARLINK-31362          
1 58935U 24027E   24352.93371062  .00002556  00000+0  98478-4 0  9999
2 58935  53.1599 225.0702 0001263  78.1646 281.9497 15.30171660 48727
STARLINK-31383          
1 58936U 24027F   24352.93264743  .00002427  00000+0  94074-4 0  9992
2 58936  53.1603 225.0644 0001312  88.5620 271.5531 15.30193865 48928
STARLINK-31390          
1 58937U 24027G   24352.92842742  .00002254  00000+0  88218-4 0  9994
2 58937  53.1610 225.0341 0001366  86.9153 273.2004 15.30195659 48920
STARLINK-31377          
1 58938U 24027H   24353.06222044  .00004357  00000+0  15913-3 0  9995
2 58938  53.1607 224.4446 0001362  82.3384 277.7772 15.30200638 48686
STARLINK-31372          
1 58939U 24027J   24353.05589269  .00003069  00000+0  11573-3 0  9997
2 58939  53.1596 224.4086 0001312  75.8549 284.2597 15.30190656 48742
STARLINK-31371          
1 58940U 24027K   24352.92419918  .00002300  00000+0  89754-4 0  9991
2 58940  53.1603 225.0095 0001431  80.6984 279.4178 15.30201207 48767
STARLINK-31345          
1 58941U 24027L   24352.91893047  .00000415  00000+0  26132-4 0  9996
2 58941  53.1600 224.9742 0001439  92.1274 267.9892 15.30195962 48923
STARLINK-31354          
1 58942U 24027M   24353.05273124  .00002543  00000+0  97952-4 0  9993
2 58942  53.1594 224.3862 0001324  80.5285 279.5866 15.30198324 48788
STARLINK-31346          
1 58943U 24027N   24353.04639801  .00015925  00000+0  54861-3 0  9990
2 58943  53.1598 224.3501 0003849  69.5558 290.5856 15.30198752 48739
STARLINK-31336          
1 58944U 24027P   24353.12647891  .00003480  00000+0  12959-3 0  9993
2 58944  53.1597 224.1347 0001877  88.7097 271.4118 15.30197337 48798
STARLINK-31359          
1 58945U 24027Q   24353.01756880  .00068409  00000+0  94938-3 0  9990
2 58945  53.1585 208.4475 0000289   2.8956 357.2058 15.56431610 49026
STARLINK-31331          
1 58946U 24027R   24352.97476152  .00003477  00000+0  12951-3 0  9995
2 58946  53.1589 224.6121 0001114  92.9978 267.1150 15.30184158 48699
STARLINK-31116          
1 58947U 24027S   24353.04322897  .00001257  00000+0  54586-4 0  9996
2 58947  53.1584 224.3275 0001193  97.1601 262.9535 15.30191266 48529
STARLINK-31311          
1 58948U 24027T   24353.16667824  .00013061  00000+0  45284-3 0  9992
2 58948  53.1575 223.6874 0001264  88.4861 267.0434 15.30161876 48503
STARLINK-31294          
1 58949U 24027U   24352.93581595  .00001334  00000+0  57190-4 0  9997
2 58949  53.1593 225.0771 0001828  88.1425 271.9785 15.30192202 48774
STARLINK-31330          
1 58951U 24027W   24352.95367669  .00039187  00000+0  12180-2 0  9991
2 58951  53.1579 224.4901 0002498 180.8974 179.2024 15.32984373 48936
STARLINK-31293          
1 58952U 24027X   24352.83778803  .00000890  00000+0  42177-4 0  9995
2 58952  53.1586 225.1800 0001131  88.6642 271.4488 15.30191139 48916
DRUMS TARGET-2          
1 58954U 21102N   24352.85715873  .00090506  00000+0  24099-2 0  9992
2 58954  97.4001  38.5195 0010179 322.8796  37.1744 15.37798087 53818
HBTSS-SV2               
1 58955U 24028A   24352.80040609  .00000270  00000+0  39164-3 0  9995
2 58955  39.9927  33.8652 0014738 342.0318  17.9906 13.70256666 42105
RAPTOR4                 
1 58956U 24028B   24352.79815831  .00000021  00000+0  11058-3 0  9997
2 58956  39.9927  33.8460 0010882 336.6929  23.3323 13.70342435 42098
RAPTOR1                 
1 58957U 24028C   24352.86051916  .00000019  00000+0  10826-3 0  9991
2 58957  39.9920  33.4414 0010890 338.4314  21.5973 13.70389233 42104
RAPTOR3                 
1 58958U 24028D   24352.84976229 -.00000017  00000+0  68676-4 0  9999
2 58958  39.9929  33.3861 0010629 339.6419  20.3903 13.70433376 42106
RAPTOR2                 
1 58959U 24028E   24352.83822252  .00000019  00000+0  10866-3 0  9993
2 58959  39.9924  33.3131 0010765 341.0507  18.9838 13.70488869 42105
HBTSS-SV1               
1 58960U 24028F   24352.79742314  .00000278  00000+0  40079-3 0  9996
2 58960  39.9926  33.8466 0013987 351.0998   8.9499 13.70157537 28762
STARLINK-31373          
1 58965U 24031A   24352.91196081  .00001836  00000+0  74110-4 0  9998
2 58965  53.1592 211.6441 0001184  92.8670 267.2467 15.30199388 48132
STARLINK-31449          
1 58966U 24031B   24352.90985028 -.00001179  00000+0 -27657-4 0  9991
2 58966  53.1599 211.6313 0001296  93.4079 266.7070 15.30210665 48138
STARLINK-31314          
1 58967U 24031C   24353.04680920  .00001493  00000+0  62511-4 0  9996
2 58967  53.1581 211.0618 0001259  97.4379 262.6765 15.30200812 48159
STARLINK-31356          
1 58968U 24031D   24353.25001157  .00111127  00000+0  19646-2 0  9994
2 58968  53.1578 205.5876 0011447 187.5282 357.1652 15.49435078 48209
STARLINK-31335          
1 58969U 24031E   24353.03626315  .00028244  00000+0  92931-3 0  9996
2 58969  53.1559 210.9948 0000754  79.5395 280.5691 15.31321823 48231
STARLINK-31368          
1 58970U 24031F   24353.05631622  .00005338  00000+0  19225-3 0  9991
2 58970  53.1581 211.1192 0000891  94.1882 265.9220 15.30194927 48156
STARLINK-31333          
1 58971U 24031G   24353.05234232  .00029352  00000+0  96111-3 0  9999
2 58971  53.1565 211.0974 0000703 134.4509 225.6550 15.31457512 48154
STARLINK-31351          
1 58972U 24031H   24352.86775387  .00001164  00000+0  51433-4 0  9999
2 58972  53.1566 212.0746 0001220  97.8823 262.2316 15.30195504 48112
STARLINK-31365          
1 58973U 24031J   24352.93939952  .00009918  00000+0  34673-3 0  9999
2 58973  53.1579 211.8099 0001043  78.1469 281.9648 15.30180657 48137
STARLINK-31361          
1 58974U 24031K   24352.93624066 -.00001245  00000+0 -29907-4 0  9999
2 58974  53.1605 211.7852 0001664  91.9647 268.1545 15.30192188 48139
STARLINK-31369          
1 58975U 24031L   24353.00788353  .00000480  00000+0  28347-4 0  9994
2 58975  53.1590 211.5259 0001321  93.3477 266.7675 15.30190332 48158
STARLINK-31324          
1 58976U 24031M   24353.01105707 -.00000627  00000+0 -90520-5 0  9990
2 58976  53.1577 211.5466 0001361  92.7964 267.3193 15.30182407 48158
STARLINK-31358          
1 58977U 24031N   24353.04364568  .00002311  00000+0  90131-4 0  9993
2 58977  53.1597 211.0268 0000949  87.1606 272.9503 15.30196935 48167
STARLINK-31355          
1 58978U 24031P   24352.88357923 -.00005915  00000+0 -18771-3 0  9996
2 58978  53.1580 212.1733 0000717  74.7769 285.3311 15.30205277 48103
STARLINK-31380          
1 58979U 24031Q   24353.01737704  .00004031  00000+0  14811-3 0  9999
2 58979  53.1607 211.5842 0001577  95.8468 264.2712 15.30211192 48141
STARLINK-31353          
1 58980U 24031R   24352.94995162  .00001576  00000+0  65326-4 0  9995
2 58980  53.1595 211.8770 0001169  89.9029 270.2106 15.30196780 48088
